NORAD_CAT_ID,OBJECT_NAME,OBJECT_TYPE,EPOCH,MEAN_MOTION,ECCENTRICITY,INCLINATION,RA_OF_ASC_NODE,ARG_OF_PERICENTER,MEAN_ANOMALY,BSTAR,MEAN_MOTION_DOT,MEAN_MOTION_DDOT,TLE_LINE0,TLE_LINE1,TLE_LINE2,SEMIMAJOR_AXIS,PERIOD,APOGEE,PERIGEE,DECAYED
56492.0,STARLINK-5846,PAYLOAD,2023-09-09 09:53:14,15.69929143,0.000327,69.9983,263.1536,262.2654,97.8171,1.6498e-05,1.772e-05,0.0,0 STARLINK-5846,1 56492U 23064AW  23252.41197425  .00001772  00000-0  16498-4 0  9997,2 56492  69.9983 263.1536 0003270 262.2654  97.8171 15.69929143 19470,6737.237,91.724,361.305,356.899,0.0
56492.0,STARLINK-5846,PAYLOAD,2023-09-09 12:56:43,15.69946382,0.0002834,69.9991,262.7947,276.5333,83.554,3.3429e-05,3.812e-05,0.0,0 STARLINK-5846,1 56492U 23064AW  23252.53939600  .00003812  00000-0  33429-4 0  9999,2 56492  69.9991 262.7947 0002834 276.5333  83.5540 15.69946382 19147,6737.187,91.723,360.962,357.143,0.0
56492.0,STARLINK-5846,PAYLOAD,2023-09-10 10:21:17,15.69908835,0.0002391,69.9996,260.2864,263.6307,96.4616,-1.5527e-05,-2.077e-05,0.0,0 STARLINK-5846,1 56492U 23064AW  23253.43145659 -.00002077  00000-0 -15527-4 0  9995,2 56492  69.9996 260.2864 0002391 263.6307  96.4616 15.69908835 19631,6737.295,91.725,360.771,357.549,0.0
56492.0,STARLINK-5846,PAYLOAD,2023-09-11 03:10:32,15.69933001,0.0002788,69.9995,258.3167,254.1731,105.9158,1.8981e-05,2.071e-05,0.0,0 STARLINK-5846,1 56492U 23064AW  23254.13232237  .00002071  00000-0  18981-4 0  9991,2 56492  69.9995 258.3167 0002788 254.1731 105.9158 15.69933001 19742,6737.226,91.724,360.969,357.212,0.0
56492.0,STARLINK-5846,PAYLOAD,2023-09-11 09:17:33,15.6992669,0.0002681,69.9999,257.5998,258.6915,101.398,1.1813e-05,1.208e-05,0.0,0 STARLINK-5846,1 56492U 23064AW  23254.38719414  .00001208  00000-0  11813-4 0  9993,2 56492  69.9999 257.5998 0002681 258.6915 101.3980 15.69926690 19787,6737.244,91.724,360.915,357.302,0.0
56492.0,STARLINK-5846,PAYLOAD,2023-09-12 02:06:49,15.69891061,0.0002435,69.9995,255.629,226.0723,134.0272,6.8718e-05,8.046e-05,0.0,0 STARLINK-5846,1 56492U 23064AW  23255.08807620  .00008046  00000-0  68718-4 0  9991,2 56492  69.9995 255.6290 0002435 226.0723 134.0272 15.69891061 19892,6737.346,91.726,360.851,357.57,0.0
56492.0,STARLINK-5846,PAYLOAD,2023-09-12 09:45:35,15.69922895,0.0002524,69.9994,254.7338,228.9269,131.1709,-1.4231e-05,-1.923e-05,0.0,0 STARLINK-5846,1 56492U 23064AW  23255.40666132 -.00001923  00000-0 -14231-4 0  9998,2 56492  69.9994 254.7338 0002524 228.9269 131.1709 15.69922895 19948,6737.255,91.724,360.82,357.419,0.0
56492.0,STARLINK-5846,PAYLOAD,2023-09-12 17:24:20,15.69919976,0.0002837,69.9988,253.8367,267.3993,92.6878,2.2341e-05,2.474e-05,0.0,0 STARLINK-5846,1 56492U 23064AW  23255.72524248  .00002474  00000-0  22341-4 0  9995,2 56492  69.9988 253.8367 0002837 267.3993  92.6878 15.69919976 19642,6737.263,91.724,361.039,357.217,0.0
56492.0,STARLINK-5846,PAYLOAD,2023-09-13 02:34:50,15.6993638,0.0003255,69.9988,252.7629,263.8159,96.2666,6.3203e-06,5.48e-06,0.0,0 STARLINK-5846,1 56492U 23064AW  23256.10753301  .00000548  00000-0  63203-5 0  9995,2 56492  69.9988 252.7629 0003255 263.8159  96.2666 15.69936380 20051,6737.216,91.723,361.274,356.888,0.0
56492.0,STARLINK-5846,PAYLOAD,2023-09-13 08:41:50,15.69948695,0.0002776,69.9985,252.0473,256.6688,103.4198,1.515e-05,1.611e-05,0.0,0 STARLINK-5846,1 56492U 23064AW  23256.36238850  .00001611  00000-0  15150-4 0  9999,2 56492  69.9985 252.0473 0002776 256.6688 103.4198 15.69948695 20099,6737.181,91.723,360.916,357.176,0.0
56492.0,STARLINK-5846,PAYLOAD,2023-09-14 03:02:54,15.69904992,0.000267,70.0002,249.8963,257.659,102.4306,2.6136e-06,1.02e-06,0.0,0 STARLINK-5846,1 56492U 23064AW  23257.12702176  .00000102  00000-0  26136-5 0  9992,2 56492  70.0002 249.8963 0002670 257.6590 102.4306 15.69904992 20212,6737.306,91.725,360.97,357.372,0.0
56492.0,STARLINK-5846,PAYLOAD,2023-09-14 09:09:54,15.69918889,0.0002949,69.9996,249.1814,254.8676,105.2194,1.5415e-05,1.641e-05,0.0,0 STARLINK-5846,1 56492U 23064AW  23257.38187909  .00001641  00000-0  15415-4 0  9997,2 56492  69.9996 249.1814 0002949 254.8676 105.2194 15.69918889 20252,6737.266,91.724,361.118,357.144,0.0
56492.0,STARLINK-5846,PAYLOAD,2023-09-14 16:48:39,15.69927898,0.0003147,69.9983,248.284,271.7936,88.2899,1.1414e-05,1.16e-05,0.0,0 STARLINK-5846,1 56492U 23064AW  23257.70045920  .00001160  00000-0  11414-4 0  9990,2 56492  69.9983 248.2840 0003147 271.7936  88.2899 15.69927898 19952,6737.24,91.724,361.225,356.985,0.0
56492.0,STARLINK-5846,PAYLOAD,2023-09-15 09:37:55,15.69932726,0.0002714,70.0006,246.3161,270.2829,89.8056,1.4669e-05,1.552e-05,0.0,0 STARLINK-5846,1 56492U 23064AW  23258.40133868  .00001552  00000-0  14669-4 0  9997,2 56492  70.0006 246.3161 0002714 270.2829  89.8056 15.69932726 20411,6737.226,91.724,360.92,357.263,0.0
56492.0,STARLINK-5846,PAYLOAD,2023-09-16 02:27:13,15.69915904,0.0003386,69.9995,244.3428,281.8915,78.1901,1.3083e-05,1.36e-05,0.0,0 STARLINK-5846,1 56492U 23064AW  23259.10223505  .00001360  00000-0  13083-4 0  9999,2 56492  69.9995 244.3428 0003386 281.8915  78.1901 15.69915904 20520,6737.275,91.725,361.421,356.858,0.0
56492.0,STARLINK-5846,PAYLOAD,2023-09-16 07:02:28,15.69922563,0.0003188,69.9992,243.8061,264.5178,95.5654,1.5433e-05,1.643e-05,0.0,0 STARLINK-5846,1 56492U 23064AW  23259.29338004  .00001643  00000-0  15433-4 0  9995,2 56492  69.9992 243.8061 0003188 264.5178  95.5654 15.69922563 20553,6737.256,91.724,361.268,356.973,0.0
56492.0,STARLINK-5846,PAYLOAD,2023-09-17 01:23:34,15.69872561,0.0003384,69.9997,241.6577,278.4948,81.5864,-4.3382e-05,-5.414e-05,0.0,0 STARLINK-5846,1 56492U 23064AW  23260.05803687 -.00005414  00000-0 -43382-4 0  9991,2 56492  69.9997 241.6577 0003384 278.4948  81.5864 15.69872561 20676,6737.399,91.727,361.544,356.984,0.0
56492.0,STARLINK-5846,PAYLOAD,2023-09-17 09:02:14,15.69944847,0.0003644,69.9995,240.7618,264.7555,95.3225,2.6725e-05,3.005e-05,0.0,0 STARLINK-5846,1 56492U 23064AW  23260.37656206  .00003005  00000-0  26725-4 0  9993,2 56492  69.9995 240.7618 0003644 264.7555  95.3225 15.69944847 20379,6737.192,91.723,361.512,356.602,0.0
56492.0,STARLINK-5846,PAYLOAD,2023-09-18 01:51:31,15.69925458,0.0003161,69.9989,238.7893,268.548,91.5354,6.7379e-06,5.98e-06,0.0,0 STARLINK-5846,1 56492U 23064AW  23261.07745281  .00000598  00000-0  67379-5 0  9998,2 56492  69.9989 238.7893 0003161 268.5480  91.5354 15.69925458 20836,6737.247,91.724,361.242,356.983,0.0
56492.0,STARLINK-5846,PAYLOAD,2023-09-18 11:02:02,15.69934156,0.0003045,69.9987,237.715,263.7259,96.359,2.012e-05,2.208e-05,0.0,0 STARLINK-5846,1 56492U 23064AW  23261.45974561  .00002208  00000-0  20120-4 0  9997,2 56492  69.9987 237.7150 0003045 263.7259  96.3590 15.69934156 20549,6737.222,91.724,361.139,357.036,0.0
56492.0,STARLINK-5846,PAYLOAD,2023-09-18 15:37:17,15.69924894,0.0002682,69.9996,237.1783,264.7442,95.3447,2.5024e-05,2.797e-05,0.0,0 STARLINK-5846,1 56492U 23064AW  23261.65090225  .00002797  00000-0  25024-4 0  9996,2 56492  69.9996 237.1783 0002682 264.7442  95.3447 15.69924894 20577,6737.249,91.724,360.921,357.307,0.0
56492.0,STARLINK-5846,PAYLOAD,2023-09-19 00:47:49,15.69912731,0.0002904,69.9996,236.1037,265.8526,94.2338,6.2862e-05,7.349e-05,0.0,0 STARLINK-5846,1 56492U 23064AW  23262.03320637  .00007349  00000-0  62862-4 0  9991,2 56492  69.9996 236.1037 0002904 265.8526  94.2338 15.69912731 20989,6737.284,91.725,361.105,357.192,0.0
56492.0,STARLINK-5846,PAYLOAD,2023-09-20 01:15:50,15.69932017,0.0002757,70.0003,233.2368,274.8998,85.1883,-3.6808e-05,-4.637e-05,0.0,0 STARLINK-5846,1 56492U 23064AW  23263.05267198 -.00004637  00000-0 -36808-4 0  9996,2 56492  70.0003 233.2368 0002757 274.8998  85.1883 15.69932017 21147,6737.228,91.724,360.951,357.236,0.0
56492.0,STARLINK-5846,PAYLOAD,2023-09-20 10:26:21,15.69918502,0.000268,70.0018,232.1612,289.5439,70.5467,4.978e-06,3.86e-06,0.0,0 STARLINK-5846,1 56492U 23064AW  23263.43497293  .00000386  00000-0  49780-5 0  9998,2 56492  70.0018 232.1612 0002680 289.5439  70.5467 15.69918502 20857,6737.267,91.725,360.938,357.327,0.0
56492.0,STARLINK-5846,PAYLOAD,2023-09-20 15:01:37,15.69912071,0.0002577,70.0018,231.6226,280.9455,79.145,1.147e-06,-7.4e-07,0.0,0 STARLINK-5846,1 56492U 23064AW  23263.62612657 -.00000074  00000-0  11470-5 0  9992,2 56492  70.0018 231.6226 0002577 280.9455  79.1450 15.69912071 21235,6737.286,91.725,360.887,357.414,0.0
56492.0,STARLINK-5846,PAYLOAD,2023-09-21 01:43:51,15.69938322,0.0003136,70.002,230.3705,266.1076,93.9761,2.9893e-05,3.385e-05,0.0,0 STARLINK-5846,1 56492U 23064AW  23264.07212618  .00003385  00000-0  29893-4 0  9999,2 56492  70.0020 230.3705 0003136 266.1076  93.9761 15.69938322 21307,6737.21,91.723,361.188,356.963,0.0
56492.0,STARLINK-5846,PAYLOAD,2023-09-21 09:22:38,15.69923506,0.0003404,70.0009,229.4761,273.1526,86.928,-4.1108e-07,-2.62e-06,0.0,0 STARLINK-5846,1 56492U 23064AW  23264.39071828 -.00000262  00000-0 -41108-6 0  9998,2 56492  70.0009 229.4761 0003404 273.1526  86.9280 15.69923506 21352,6737.253,91.724,361.411,356.824,0.0
56492.0,STARLINK-5846,PAYLOAD,2023-09-21 21:36:39,15.69919123,0.0003112,70.0007,228.0424,271.9978,88.0861,2.3627e-05,2.629e-05,0.0,0 STARLINK-5846,1 56492U 23064AW  23264.90045655  .00002629  00000-0  23627-4 0  9995,2 56492  70.0007 228.0424 0003112 271.9978  88.0861 15.69919123 21082,6737.265,91.724,361.227,357.034,0.0
56492.0,STARLINK-5846,PAYLOAD,2023-09-22 06:47:09,15.69929596,0.0002768,69.9998,226.9674,271.4812,88.6067,2.2608e-05,2.507e-05,0.0,0 STARLINK-5846,1 56492U 23064AW  23265.28275141  .00002507  00000-0  22608-4 0  9995,2 56492  69.9998 226.9674 0002768 271.4812  88.6067 15.69929596 21146,6737.235,91.724,360.965,357.236,0.0
56492.0,STARLINK-5846,PAYLOAD,2023-09-22 22:04:41,15.69918291,0.0003773,70.0003,225.1766,258.6709,101.4063,1.4311e-05,1.508e-05,0.0,0 STARLINK-5846,1 56492U 23064AW  23265.91992407  .00001508  00000-0  14311-4 0  9998,2 56492  70.0003 225.1766 0003773 258.6709 101.4063 15.69918291 21249,6737.268,91.725,361.675,356.591,0.0
